[Satellite]
VERSION=1.1
NAME=GPS BIIF-11
NICKNAME=GPS BIIF-11
TLE1=1 41019U 15062A   17186.09156797  .00000037  00000-0  00000-0 0  9996
TLE2=2 41019  55.0147 159.5754 0026972 205.5084 154.3365  2.00563643 12262
